STARLINK-2254
1 18005C 21024AE  21326.15922991  .00000664  00000-0  44508-4 0  3263
2 18005  53.0554 148.0302 0002802 102.0814 289.1798 15.06397825    18
